[{"OBJECT_NAME":"KUIPER-00140","OBJECT_ID":"2025-228U","EPOCH":"2026-03-09T22:44:55.211136","MEAN_MOTION":14.79932108,"ECCENTRICITY":7.173e-5,"INCLINATION":51.9003,"RA_OF_ASC_NODE":344.5294,"ARG_OF_PERICENTER":130.1731,"MEAN_ANOMALY":229.9294,"EPHEMERIS_TYPE":0,"CLASSIFICATION_TYPE":"U","NORAD_CAT_ID":65965,"ELEMENT_SET_NO":999,"REV_AT_EPOCH":2347,"BSTAR":0.00031250599,"MEAN_MOTION_DOT":2.162e-5,"MEAN_MOTION_DDOT":0},{"OBJECT_NAME":"SL-14 R\/B","OBJECT_ID":"1984-111B","EPOCH":"2026-03-09T21:13:00.090048","MEAN_MOTION":14.86060168,"ECCENTRICITY":0.00194189,"INCLINATION":82.512,"RA_OF_ASC_NODE":256.2815,"ARG_OF_PERICENTER":336.2654,"MEAN_ANOMALY":23.7664,"EPHEMERIS_TYPE":0,"CLASSIFICATION_TYPE":"U","NORAD_CAT_ID":15370,"ELEMENT_SET_NO":999,"REV_AT_EPOCH":21590,"BSTAR":6.4730325e-5,"MEAN_MOTION_DOT":5.92e-6,"MEAN_MOTION_DDOT":0}]
